0073P     at  2006 06  6.228   0.93925   0.69330   198.778    69.901    11.391              9.0  4.0  73P-AT/Schwassmann-Wachmann                              MPC 56799
0073P     au  2006 06  8.093   0.93929   0.69330   198.744    69.928    11.385              9.0  4.0  73P-AU/Schwassmann-Wachmann                              MPC 56799
0073P     av  2006 06  6.490   0.93930   0.69330   198.751    69.945    11.388              9.0  4.0  73P-AV/Schwassmann-Wachmann                              MPC 56800
0073P     aw  2006 06  7.766   0.93947   0.69330   198.673    69.982    11.377              9.0  4.0  73P-AW/Schwassmann-Wachmann                              MPC 56800
0073P     ax  2006 06  9.533   0.93912   0.69330   198.757    69.915    11.388              9.0  4.0  73P-AX/Schwassmann-Wachmann                              MPC 56800
0073P     ay  2006 06  8.760   0.93918   0.69330   198.750    69.923    11.385              9.0  4.0  73P-AY/Schwassmann-Wachmann                              MPC 56800
0073P     az  2006 06  6.515   0.93962   0.69330   198.644    70.002    11.371              9.0  4.0  73P-AZ/Schwassmann-Wachmann                              MPC 56800
0073P     ba  2006 06  6.436   0.93976   0.69330   198.588    70.042    11.364              9.0  4.0  73P-BA/Schwassmann-Wachmann                              MPC 56800
0073P     bb  2006 06  7.087   0.93912   0.69330   198.807    69.882    11.395              9.0  4.0  73P-BB/Schwassmann-Wachmann                              MPC 56800
0073P     bc  2006 06  6.670   0.93922   0.69330   198.778    69.901    11.391              9.0  4.0  73P-BC/Schwassmann-Wachmann                              MPC 56800
0073P     bd  2006 06  6.417   0.93998   0.69330   198.503    70.085    11.352              9.0  4.0  73P-BD/Schwassmann-Wachmann                              MPC 56800
0073P     be  2006 06  6.863   0.93902   0.69330   198.861    69.841    11.405              9.0  4.0  73P-BE/Schwassmann-Wachmann                              MPC 56800
0073P     bf  2006 06  6.992   0.93918   0.69330   198.752    69.908    11.390              9.0  4.0  73P-BF/Schwassmann-Wachmann                              MPC 56800
0073P     bg  2006 06  8.741   0.93915   0.69330   198.750    69.925    11.384              9.0  4.0  73P-BG/Schwassmann-Wachmann                              MPC 56800
0073P     bh  2006 06  8.568   0.93874   0.69330   198.947    69.752    11.410              9.0  4.0  73P-BH/Schwassmann-Wachmann                              MPC 56801
0073P     bi  2006 06  8.639   0.93905   0.69330   198.877    69.819    11.404              9.0  4.0  73P-BI/Schwassmann-Wachmann                              MPC 56801
0073P     bj  2006 06  8.669   0.93914   0.69330   198.776    69.905    11.389              9.0  4.0  73P-BJ/Schwassmann-Wachmann                              MPC 56801
0073P     bk  2006 06  8.884   0.93931   0.69330   198.698    69.970    11.379              9.0  4.0  73P-BK/Schwassmann-Wachmann                              MPC 56801
0073P     bl  2006 06  8.885   0.93923   0.69330   198.739    69.930    11.385              9.0  4.0  73P-BL/Schwassmann-Wachmann                              MPC 56801
0073P     bm  2006 06  8.938   0.93962   0.69330   198.546    70.086    11.364              9.0  4.0  73P-BM/Schwassmann-Wachmann                              MPC 56801
0073P     bn  2006 06  8.203   0.93905   0.69330   198.815    69.871    11.398              9.0  4.0  73P-BN/Schwassmann-Wachmann                              MPC 56801
0073P     bo  2006 06  8.259   0.93913   0.69330   198.765    69.903    11.390              9.0  4.0  73P-BO/Schwassmann-Wachmann                              MPC 56801
0073P     bp  2006 06  8.302   0.93910   0.69330   198.807    69.881    11.395              9.0  4.0  73P-BP/Schwassmann-Wachmann                              MPC 56801
0073P     bq  2006 06  8.297   0.93900   0.69330   198.862    69.836    11.404              9.0  4.0  73P-BQ/Schwassmann-Wachmann                              MPC 56801
0073P     br  2006 06  6.154   0.93921   0.69330   198.774    69.910    11.389              9.0  4.0  73P-BR/Schwassmann-Wachmann                              MPC 56957
0073P     bs  2006 06  5.831   0.93918   0.69330   198.814    69.885    11.399              9.0  4.0  73P-BS/Schwassmann-Wachmann                              MPC 56957
0073P     bt  2022 08 30.6183  0.946303  0.692822   70.4034  198.2312   11.0540  20241001  11.5  6.0  73P-BT/Schwassmann-Wachmann                              MPC106348
0073P     bu  2022 08 27.2204  0.943383  0.671063   70.9398  199.3466   11.0053  20241001  19.0  4.0  73P-BU/Schwassmann-Wachmann                              MPEC 2022-P18
0073P     bv  2022 08 31.0046  0.929401  0.702287  198.8155   69.3771   11.3387  20241001  19.0  4.0  73P-BV/Schwassmann-Wachmann                              MPEC 2022-X67
0073P     bw  2022 08 25.5705  0.962321  0.787677   71.2953  193.4296   10.2504  20241001  18.2  4.0  73P-BW/Schwassmann-Wachmann                              MPEC 2022-R15
0073P     bx  2022 08 31.1779  0.931546  0.699757  198.8727   69.3747   11.3515  20241001  17.5  4.0  73P-BX/Schwassmann-Wachmann                              MPEC 2023-A50
0073P     by  2022 08 27.4658  0.947102  0.686650   70.3825  198.4573   11.0604  20241001  17.4  4.0  73P-BY/Schwassmann-Wachmann                              MPEC 2022-R15
0074P         2027 06  2.9948  4.762028  0.033766   97.9762   53.7028    6.3973  20241001   5.0  6.0  74P/Smirnova-Chernykh                                    MPEC 2024-EF7
0075D         2027 11  2.2868  1.770545  0.499440  175.5644  269.5525    5.9264  20241001   9.5  6.0  75D/Kohoutek                                             CCO     7
0076P         2026 04 13.5389  1.597579  0.539393  359.9719   84.1124   30.4887  20241001   8.0 12.0  76P/West-Kohoutek-Ikemura                                MPEC 2022-K19
0077P         2023 04  2.8650  2.347918  0.351661  196.6569   14.7574   24.3199  20241001   7.0  8.0  77P/Longmore                                             MPEC 2024-R10
0078P         2026 06 24.9984  2.005024  0.463159  192.7191  210.5151    6.2575  20241001   5.5  8.0  78P/Gehrels                                              MPEC 2024-Q20
0079P         2023 09 30.3047  1.120793  0.619197  281.7656  280.5157    3.1489  20241001  16.0  4.0  79P/duToit-Hartley                                       MPEC 2024-PC5
0080P         2022 12  8.5798  1.617220  0.597959  339.2886  259.7759   29.9255  20241001   9.0  8.0  80P/Peters-Hartley                                       MPEC 2024-Q20
0081P         2022 12 15.6056  1.597076  0.537378   41.5699  136.0942    3.2373  20241001   7.0  6.0  81P/Wild                                                 MPEC 2024-RQ6
0082P         2026 11 15.9514  3.625353  0.122614  226.4420  239.2226    1.1292  20241001  15.0  4.0  82P/Gehrels                                              MPC133426
0083D         2021 05 22.0305  2.147549  0.441289  334.4083  226.3015   17.8277  20241001   9.0  4.0  83D/Russell                                              NK    932
0084P         2027 02 12.3601  1.718527  0.515923  281.6709  108.1495    7.5520  20241001   9.5  8.0  84P/Giclas                                               MPEC 2020-FB5
0085D         2020 07 30.4153  1.129240  0.776171  333.0845   65.2858    4.1740  20241001   6.5  8.0  85D/Boethin                                              unp
0086P         2022 02  6.9596  2.300041  0.367184  180.9370   72.0805   15.5321  20241001  11.0  6.0  86P/Wild                                                 MPEC 2022-YB4
0087P         2029 03 24.0156  3.344742  0.226375   51.7300  186.0265    2.6963  20241001   7.2 10.0  87P/Bus                                                  MPEC 2020-SI8
0088P         2026 03 18.8415  1.357507  0.563177  235.9037   56.6669    4.3820  20241001  11.0  6.0  88P/Howell                                               MPEC 2024-C04
0089P         2024 03 26.5999  2.221872  0.407636  250.4022   41.3441   12.0722  20241001  11.5  6.0  89P/Russell                                              MPEC 2024-RQ6
0090P         2017 06 23.9262  2.959895  0.510986   29.1454   13.2052    9.6447  20241001   8.5  6.0  90P/Gehrels                                              MPEC 2022-K19
0091P         2028 10  1.4027  2.925522  0.279542  358.6855  242.7108   16.6572  20241001   7.5  6.0  91P/Russell                                              MPEC 2023-VM5
0092P         2027 07 15.1696  1.815067  0.660305  163.7965  181.3728   19.4879  20241001  12.0  6.0  92P/Sanguin                                              MPEC 2014-J58
0093P         2026 05  2.8495  1.689026  0.614026   74.9844  339.5650   12.2067  20241001   9.5  6.0  93P/Lovas                                                MPEC 2024-R10
0094P         2023 05 21.0509  2.226353  0.365782   92.3861   70.8519    6.1880  20241001   9.0  6.0  94P/Russell                                              MPEC 2024-R10
0095P         2046 08 25.1906  8.533629  0.377381  339.3680  209.1969    6.9242  20241001   6.5  2.0  95P/Chiron                                               MPC 75717
0096P         2023 01 31.1636  0.116202  0.961662   14.7380   93.9593   57.5708  20241001  13.0  4.8  96P/Machholz                                             MPEC 2023-N01
0096P      b  2023 01 31.1260  0.116094  0.961685   93.9711   14.6758   57.5025  20241001  13.0  4.8  96P-B/Machholz                                           MPC106348
0096P      c  2012 07 14.6812  0.123794  0.958898   15.5380   94.3495   58.5311             9.0  4.0  96P-C/Machholz                                           MPC103849
0097P         2022 02 16.0516  2.573692  0.460212  230.1428  184.0798   17.9449  20241001   5.5  6.0  97P/Metcalf-Brewington                                   MPEC 2024-GJ3
